LEMUR-2-KREMPEL-BRO1    
1 63357U 25061G   26062.38611101  .00005676  00000+0  31795-3 0  9996
2 63357  97.5518  39.0399 0017109 252.7564 107.1795 15.13689942 51625
LEMUR-2-LANGER2SPACE    
1 63358U 25061H   26062.45755364  .00005980  00000+0  33796-3 0  9996
2 63358  97.5523  38.9677 0015075 262.5471  97.4047 15.13377771 51620
LEMUR-2-BALTO           
1 63395U 25052BH  26062.68671385  .00008642  00000+0  72079-3 0  9997
2 63395  97.7004 317.5832 0003063  16.6533 343.4790 14.98827118 52950
